# Made by eph2tle, compiled Apr 30 2024 22:26:27
# Run at Mon Jun 17 21:35:26 2024
#
#    The following TLEs (Two-Line Elements) were generated by fitting
# a numerically-integrated ephemeris,  based on the orbit given below,
# to the SDP4/SGP4 models.  Each TLE is good for the interval between
# its epoch and the epoch of the subsequent TLE (usually one day).
# The maximum deviation between the numerically integrated ephemerides
# and the TLE-based ephemeris, in kilometers,  is given for each TLE
# as the "worst residual".
#
#    This fitting is done using the 'eph2tle' code packaged with Find_Orb.
# The code has details on how the TLEs were computed :
#
#    https://github.com/Bill-Gray/find_orb/eph2tle.cpp
#
#    Be warned:  the error given is that between the numerically
# integrated ephems and the TLE model.  There will usually be at
# least some additional difference between the ephems and the actual
# motion of the satellite,  especially if the ephemerides are based
# on a short arc.  If the following orbital elements say something
# like "[based on] 10 observations 2015 Jan. 1-13",  and the TLEs
# are for 2015 May,  the extrapolation may be tenuous at best.  If
# your application requires a specific level of accuracy,  you may
# want to contact me;  I can give you some idea as to the fit of the
# underlying data (and possibly TLEs based on newer data).
#
#   You can usually find the underlying observational data,  and the
# fitted orbit,  residuals,  ephemerides,  and sometimes some comments
# about the object,  among the pages listed at
#
#    https://www.projectpluto.com/pluto/mpecs/pseudo.htm
#
#    WARNING:  for this object,  "normal" TLEs cannot be fitted.  (This
# usually means an object with an hyperbolic or nearly-parabolic orbit.)
# For this and similar cases,   an alternative model is used,  in which
# most of the traditional TLE data is replaced by six signed 8-digit hex
# numbers.  These six numbers are a state vector,  numerically integrated
# using a simplified force model.  This is necessary for objects at L2 or
# L1,  and sometimes for objects in high orbits where the SDP4/SGP4 model
# fails.  Some documentation is in 'get_el.cpp' in the source code at
# https://www.github.com/Bill-Gray/sat_code ; look for 'hex' in that file,
# with the actual integration done in 'sdp4.cpp'.  But be aware:  it's my
# own extension,  doesn't work with other code,  and is therefore used
# only when necessary.
#
#    Also,  if you use a TLE outside the "correct" time range (between
# its MJD and that of the next TLE),  all bets are off.  I've carefully
# computed and minimized the worst error over the "correct" time frame,
# but the ephemeris may (or may not) diverge wildly outside of it.
#
# Ephem range: 60361.500000 60690.500000 1.000000
# Created Mon Jun 17 21:35:19 2024
# Ephemeris start: 21 Feb 2024 12:00:00
# Ephemeris end:   15 Jan 2025 12:00:00
# Times are all TDT
# Positions/velocities are in equatorial J2000
# Orbital elements:  2024-030B = NORAD 58964 = Falcon 9-300 Stage 2
#    Perihelion 2023 Dec 30.7913501 +/- 0.000303 TT = 18:59:32.64 (JD 2460309.2913501)
# Epoch 2024 May 10.0 TT; AMR 0.013599 +/- 0.000164 m^2/kg   Earth MOID: 0.0004
# M 130.4368004774 +/- 0.00033        (J2000 ecliptic)             Find_Orb
# n   0.9941173890 +/- 2.73e-7        Peri.  240.9226009 +/- 0.00039
# a   0.9942851098 +/- 1.82e-7        Node   216.8879781 +/- 0.00040
# e   0.024650426 +/- 1.28e-7         Incl.    0.2610735 +/- 0.0000011
# P   0.991/362.123d         H 26.59  G  0.15   U  2.6
# q 0.9697755582 +/- 3e-7    Q 1.0187946614 +/- 8.18e-8
# 192 of 222 observations 2024 Feb. 16-June 15; mean residual 1".794
#
# 1 NoradU COSPAR   Epoch.epoch     dn/dt/2  d2n/dt2/6 BSTAR    T El# C
# 2 NoradU Inclina RAAscNode Eccent  ArgPeri MeanAno  MeanMotion Rev# C

# Worst residual: 2767.79 km
# MJD 60361.500000 (2024 Feb 21 12:00)
2024-030B = NORAD 58964 = Falcon 9-300 Stage 2
1 58964U 24030B   24052.49919926 -003FQZRT +0050LBU0 +002V1IOCH 23618
2 58964                          +0001LDR9 -0000V7ZK -0000313N     00

# Worst residual: 12.31 km
# MJD 60362.500000 (2024 Feb 22 12:00)
2024-030B = NORAD 58964 = Falcon 9-300 Stage 2
1 58964U 24030B   24053.49919926 -0047MVF6 +004BXFFJ +0017YY84H 23619
2 58964                          -00042VKJ -0003NLR2 -0006Z25U     01

# Worst residual: 2.79 km
# MJD 60363.500000 (2024 Feb 23 12:00)
2024-030B = NORAD 58964 = Falcon 9-300 Stage 2
1 58964U 24030B   24054.49919926 -00527Z7B +003C2YQT -000FVI9KH 23615
2 58964                          -0002Y7M6 -0004LW6H -0006UVTY     08

# Worst residual: 1.14 km
# MJD 60364.500000 (2024 Feb 24 12:00)
2024-030B = NORAD 58964 = Falcon 9-300 Stage 2
1 58964U 24030B   24055.49919926 -005M8SR1 +00256N4K -0021QK6CH 23611
2 58964                          -0001OTEF -00059DDB -0006HKNC     08

# Worst residual: 0.57 km
# MJD 60365.500000 (2024 Feb 25 12:00)
2024-030B = NORAD 58964 = Falcon 9-300 Stage 2
1 58964U 24030B   24056.49919926 -005VU93Q +000U8KW2 -003JD0W7H 23619
2 58964                          -0000KJ4P -0005JV1J -0005WHKP     02

# Worst residual: 0.29 km
# MJD 60366.500000 (2024 Feb 26 12:00)
2024-030B = NORAD 58964 = Falcon 9-300 Stage 2
1 58964U 24030B   24057.49919926 -005WUJ33 -000HZ0RI -004VKD17H 23617
2 58964                          +0000AK0J -0005KNNK -00059882     03

# Worst residual: 0.16 km
# MJD 60367.500000 (2024 Feb 27 12:00)
2024-030B = NORAD 58964 = Falcon 9-300 Stage 2
1 58964U 24030B   24058.49919926 -005RGYFF -001TN68I -0062B3L7H 23613
2 58964                          +0000WYT9 -0005FZ7Q -0004NCIL     01

# Worst residual: 0.17 km
# MJD 60368.500000 (2024 Feb 28 12:00)
2024-030B = NORAD 58964 = Falcon 9-300 Stage 2
1 58964U 24030B   24059.49919926 -005HJVRF -0033UD40 -00743UGXH 23615
2 58964                          +0001CRHD -00058RGE -000443UH     01

# Worst residual: 0.26 km
# MJD 60369.500000 (2024 Feb 29 12:00)
2024-030B = NORAD 58964 = Falcon 9-300 Stage 2
1 58964U 24030B   24060.49919926 -0054FNWU -004C6FC3 -0081M9DXH 23618
2 58964                          +0001NWNI -00050MH6 -0003NL3O     04

# Worst residual: 0.40 km
# MJD 60370.500000 (2024 Mar  1 12:00)
2024-030B = NORAD 58964 = Falcon 9-300 Stage 2
1 58964U 24030B   24061.49919926 -004P1UHT -005IJ7TW -008VGJU4H 23618
2 58964                          +0001VUNC -0004SCMS -00039GF9     02

# Worst residual: 0.57 km
# MJD 60371.500000 (2024 Mar  2 12:00)
2024-030B = NORAD 58964 = Falcon 9-300 Stage 2
1 58964U 24030B   24062.49919926 -00481IV8 -006MXB6I -009M5N78H 23612
2 58964                          +00021KXP -0004KANB -0002XBHN     05

# Worst residual: 0.70 km
# MJD 60372.500000 (2024 Mar  3 12:00)
2024-030B = NORAD 58964 = Falcon 9-300 Stage 2
1 58964U 24030B   24063.49919926 -003PUUIK -007PFBCX -00AA56NZH 23612
2 58964                          +00025QMY -0004CLQP -0002MTJR     09

# Worst residual: 0.74 km
# MJD 60373.500000 (2024 Mar  4 12:00)
2024-030B = NORAD 58964 = Falcon 9-300 Stage 2
1 58964U 24030B   24064.49919926 -0036THJS -008Q4MYY -00AVS0UWH 23613
2 58964                          +00028QL2 -00045BSD -0002DO1Y     00

# Worst residual: 0.52 km
# MJD 60374.500000 (2024 Mar  5 12:00)
2024-030B = NORAD 58964 = Falcon 9-300 Stage 2
1 58964U 24030B   24065.49919926 -002N686R -009P4XUG -00BFCPTDH 23618
2 58964                          +0002AUFM -0003YH9D -00025MDN     07

# Worst residual: 0.68 km
# MJD 60375.500000 (2024 Mar  6 12:00)
2024-030B = NORAD 58964 = Falcon 9-300 Stage 2
1 58964U 24030B   24066.49919926 -00233XGM -00AMJX5S -00BX3YDRH 23610
2 58964                          +0002C8TK -0003S243 -0001YHKX     09

# Worst residual: 0.62 km
# MJD 60376.500000 (2024 Mar  7 12:00)
2024-030B = NORAD 58964 = Falcon 9-300 Stage 2
1 58964U 24030B   24067.49919926 -001IS33N -00BIH994 -00CD8YBNH 23612
2 58964                          +0002D2PE -0003M27A -0001S49V     06

# Worst residual: 0.34 km
# MJD 60377.500000 (2024 Mar  8 12:00)
2024-030B = NORAD 58964 = Falcon 9-300 Stage 2
1 58964U 24030B   24068.49919926 -000YB46X -00CD0LBM -00CRXSUDH 23616
2 58964                          +0002DG67 -0003GHFO -0001MEF1     06

# Worst residual: 0.37 km
# MJD 60378.500000 (2024 Mar  9 12:00)
2024-030B = NORAD 58964 = Falcon 9-300 Stage 2
1 58964U 24030B   24069.49919926 -000DSIE6 -00D69JWQ -00D5BQX2H 23615
2 58964                          +0002DGXO -0003BBQA -0001H8ZU     00

# Worst residual: 0.25 km
# MJD 60379.500000 (2024 Mar 10 12:00)
2024-030B = NORAD 58964 = Falcon 9-300 Stage 2
1 58964U 24030B   24070.49919926 +0006P435 -00DYBQ7H -00DHJEK3H 23616
2 58964                          +0002D8KX -00036KTH -0001CLNA     06

# Worst residual: 0.20 km
# MJD 60380.500000 (2024 Mar 11 12:00)
2024-030B = NORAD 58964 = Falcon 9-300 Stage 2
1 58964U 24030B   24071.49919926 +000R3ZK8 -00EPALHS -00DSOV0GH 23610
2 58964                          +0002CUKH -00032813 -00018ECB     04

# Worst residual: 0.27 km
# MJD 60381.500000 (2024 Mar 12 12:00)
2024-030B = NORAD 58964 = Falcon 9-300 Stage 2
1 58964U 24030B   24072.49919926 +001BF50C -00FF9F18 -00E2VQKLH 23616
2 58964                          +0002CE17 -0002Y86E -00014L5T     02

# Worst residual: 0.28 km
# MJD 60382.500000 (2024 Mar 13 12:00)
2024-030B = NORAD 58964 = Falcon 9-300 Stage 2
1 58964U 24030B   24073.49919926 +001VMA8U -00G4B3QZ -00EC7730H 23614
2 58964                          +0002BXJX -0002UJM3 -0001147Q     06

# Worst residual: 0.38 km
# MJD 60383.500000 (2024 Mar 14 12:00)
2024-030B = NORAD 58964 = Falcon 9-300 Stage 2
1 58964U 24030B   24074.49919926 +002FPOBX -00GSI50B -00EKPY8WH 23617
2 58964                          +0002BIZQ -0002R4F8 -0000XXNW     02

# Worst residual: 0.42 km
# MJD 60384.500000 (2024 Mar 15 12:00)
2024-030B = NORAD 58964 = Falcon 9-300 Stage 2
1 58964U 24030B   24075.49919926 +002ZPXAV -00HFWJAV -00ESIACOH 23615
2 58964                          +0002B7I2 -0002NWNB -0000UZSH     09

